AUTCUBE 2               
1 43681U 18084K   26068.48152820  .00005282  00000+0  33524-3 0  9991
2 43681  98.0799 269.3640 0009685  28.2406 331.9345 15.09319394401889
STARLINK-5417           
1 54805U 22175AZ  26068.29236996 -.00001672  00000+0 -86963-4 0  9990
2 54805  53.2185  30.6165 0001405  86.7369 273.3784 15.08840915180079
