[{"OBJECT_NAME":"AUTCUBE 2","OBJECT_ID":"2018-084K","EPOCH":"2026-03-09T11:33:24.036480","MEAN_MOTION":15.09319394,"ECCENTRICITY":0.00096854,"INCLINATION":98.0799,"RA_OF_ASC_NODE":269.364,"ARG_OF_PERICENTER":28.2406,"MEAN_ANOMALY":331.9345,"EPHEMERIS_TYPE":0,"CLASSIFICATION_TYPE":"U","NORAD_CAT_ID":43681,"ELEMENT_SET_NO":999,"REV_AT_EPOCH":40188,"BSTAR":0.00033524122,"MEAN_MOTION_DOT":5.282e-5,"MEAN_MOTION_DDOT":0},{"OBJECT_NAME":"STARLINK-5417","OBJECT_ID":"2022-175AZ","EPOCH":"2026-03-09T07:01:00.764544","MEAN_MOTION":15.08840915,"ECCENTRICITY":0.00014053,"INCLINATION":53.2185,"RA_OF_ASC_NODE":30.6165,"ARG_OF_PERICENTER":86.7369,"MEAN_ANOMALY":273.3784,"EPHEMERIS_TYPE":0,"CLASSIFICATION_TYPE":"U","NORAD_CAT_ID":54805,"ELEMENT_SET_NO":999,"REV_AT_EPOCH":18007,"BSTAR":-8.6963195e-5,"MEAN_MOTION_DOT":-1.672e-5,"MEAN_MOTION_DDOT":0}]
